{"type":"FeatureCollection","features":[{"type":"Feature","id":224982053,"geometry":{"type":"Polygon","coordinates":[[[100.4934398,13.6527568],[100.4934406,13.6524513],[100.493819,13.6524521],[100.4938159,13.6527578],[100.4934398,13.6527568]]]},"properties":{"osmId":"way/224982053","name":"คณะเทคโนโลยีสารสนเทศ","height":9,"heightSource":"display-default","levels":null,"directoryId":"N11"}},{"type":"Feature","id":311879209,"geometry":{"type":"Polygon","coordinates":[[[100.4938159,13.6527578],[100.493818,13.652797],[100.4936696,13.6527907],[100.4936525,13.6531715],[100.4941107,13.6531909],[100.4941287,13.65279],[100.4940489,13.6527866],[100.4940672,13.6523809],[100.4938358,13.6523711],[100.493819,13.6524521],[100.4938159,13.6527578]]]},"properties":{"osmId":"way/311879209","name":"สำนักหอสมุด","height":9,"heightSource":"display-default","levels":null,"directoryId":"N10"}},{"type":"Feature","id":346449664,"geometry":{"type":"Polygon","coordinates":[[[100.4915221,13.651168],[100.491675,13.6511674],[100.491677,13.6512623],[100.491743,13.6512849],[100.4917428,13.6512766],[100.4918353,13.6512758],[100.4918332,13.6512136],[100.4918886,13.6512136],[100.4918658,13.6512272],[100.4918542,13.6512389],[100.4918468,13.6512559],[100.4918451,13.6512699],[100.491847,13.6512841],[100.4918521,13.6512953],[100.4918626,13.6513085],[100.4918736,13.6513161],[100.4918874,13.6513213],[100.4919078,13.6513232],[100.4919322,13.6513148],[100.4919447,13.6513045],[100.4919493,13.651298],[100.4919528,13.6512882],[100.491955,13.6512752],[100.491982,13.6512745],[100.4919747,13.6508895],[100.4919624,13.6503785],[100.4916575,13.6503832],[100.4916592,13.6505141],[100.4916706,13.6505137],[100.4916709,13.6505415],[100.4916601,13.6505291],[100.4916511,13.6505214],[100.4916388,13.6505156],[100.4916244,13.6505156],[100.4916086,13.6505184],[100.4915948,13.6505248],[100.4915832,13.6505351],[100.4915741,13.6505472],[100.4915702,13.6505589],[100.4915681,13.650573],[100.4915457,13.6505799],[100.4915459,13.6506125],[100.4915185,13.6506137],[100.4915221,13.651168]]]},"properties":{"osmId":"way/346449664","name":"KMUTT Canteen","height":9,"heightSource":"display-default","levels":null}},{"type":"Feature","id":346450376,"geometry":{"type":"Polygon","coordinates":[[[100.494099,13.6546828],[100.4940714,13.6546132],[100.4940453,13.654623],[100.4939937,13.6544929],[100.4940202,13.654483],[100.4940112,13.6544605],[100.4943228,13.6543439],[100.4943439,13.6543972],[100.4943782,13.6543844],[100.4944452,13.6545532],[100.494099,13.6546828]]]},"properties":{"osmId":"way/346450376","name":"Institute for Field Robotics","height":9,"heightSource":"display-default","levels":null,"directoryId":"N9"}},{"type":"Feature","id":378153794,"geometry":{"type":"Polygon","coordinates":[[[100.4956066,13.6506198],[100.4958731,13.6503378],[100.495693,13.650177],[100.4956575,13.6501453],[100.4955828,13.6502243],[100.4953909,13.6504273],[100.4956066,13.6506198]]]},"properties":{"osmId":"way/378153794","name":"ตึกจอดรถ14ชั้น","height":42,"heightSource":"levels-estimate","levels":14,"directoryId":"S2"}},{"type":"Feature","id":420044928,"geometry":{"type":"Polygon","coordinates":[[[100.4939059,13.6501461],[100.4939076,13.6499733],[100.4939088,13.6498533],[100.4942112,13.6498574],[100.4943461,13.649858],[100.4945232,13.6498588],[100.4945204,13.6501521],[100.494414,13.6501512],[100.4942714,13.6501494],[100.4942179,13.6501489],[100.4939059,13.6501461]]]},"properties":{"osmId":"way/420044928","name":"กลุ่มอาคารวิศวะวัฒนะ","height":33,"heightSource":"levels-estimate","levels":11,"directoryId":"S4"}},{"type":"Feature","id":420044929,"geometry":{"type":"Polygon","coordinates":[[[100.494414,13.6501512],[100.4944049,13.6504451],[100.4944415,13.650446],[100.494807,13.6504559],[100.4948068,13.6501562],[100.494711,13.6501548],[100.4946241,13.6501503],[100.4945204,13.6501521],[100.494414,13.6501512]]]},"properties":{"osmId":"way/420044929","name":"","height":24,"heightSource":"levels-estimate","levels":8}},{"type":"Feature","id":420044930,"geometry":{"type":"Polygon","coordinates":[[[100.4939059,13.6501461],[100.4942179,13.6501489],[100.4942119,13.6505321],[100.4939021,13.6505275],[100.4939044,13.650298],[100.4939059,13.6501461]]]},"properties":{"osmId":"way/420044930","name":"คณะวิศวกรรมโยธา","height":9,"heightSource":"display-default","levels":null}},{"type":"Feature","id":420044931,"geometry":{"type":"Polygon","coordinates":[[[100.4942714,13.6501494],[100.4942657,13.6503303],[100.4943311,13.6503322],[100.4943276,13.6504429],[100.4944049,13.6504451],[100.494414,13.6501512],[100.4942714,13.6501494]]]},"properties":{"osmId":"way/420044931","name":"","height":9,"heightSource":"display-default","levels":null}},{"type":"Feature","id":420045662,"geometry":{"type":"Polygon","coordinates":[[[100.4946088,13.6492146],[100.4947406,13.6494195],[100.4945198,13.6495536],[100.4944794,13.6495782],[100.4944514,13.6495345],[100.4944067,13.6495616],[100.4943273,13.6494381],[100.4943684,13.6494129],[100.4943442,13.6493757],[100.4946088,13.6492146]]]},"properties":{"osmId":"way/420045662","name":"หอพักธรรมรักษา 2","height":30,"heightSource":"levels-estimate","levels":10,"directoryId":"S5"}},{"type":"Feature","id":420047458,"geometry":{"type":"Polygon","coordinates":[[[100.4961695,13.6507069],[100.4961234,13.650608],[100.4960599,13.650636],[100.4960473,13.650609],[100.4959519,13.650651],[100.4959993,13.6507526],[100.4960106,13.6507769],[100.4961695,13.6507069]]]},"properties":{"osmId":"way/420047458","name":"","height":12,"heightSource":"levels-estimate","levels":4}},{"type":"Feature","id":420050690,"geometry":{"type":"Polygon","coordinates":[[[100.4954728,13.6499493],[100.4955499,13.6499128],[100.4954657,13.6497769],[100.4953993,13.6498051],[100.4954728,13.6499493]]]},"properties":{"osmId":"way/420050690","name":"","height":9,"heightSource":"display-default","levels":null}},{"type":"Feature","id":420050691,"geometry":{"type":"Polygon","coordinates":[[[100.4955499,13.6499128],[100.4955963,13.6498988],[100.4955538,13.6498454],[100.4955156,13.649755],[100.4954657,13.6497769],[100.4955499,13.6499128]]]},"properties":{"osmId":"way/420050691","name":"","height":9,"heightSource":"display-default","levels":null}},{"type":"Feature","id":420051710,"geometry":{"type":"Polygon","coordinates":[[[100.4949496,13.6486018],[100.4950778,13.6488],[100.4947812,13.6489811],[100.4945188,13.6491413],[100.4944503,13.6490353],[100.4944295,13.649048],[100.4943698,13.6489558],[100.4949496,13.6486018]]]},"properties":{"osmId":"way/420051710","name":"หอพักธรรมรักษา 1","height":33,"heightSource":"levels-estimate","levels":11,"directoryId":"S6"}},{"type":"Feature","id":420054257,"geometry":{"type":"Polygon","coordinates":[[[100.4943442,13.6493757],[100.4942696,13.6494216],[100.4942825,13.6494415],[100.4942937,13.6494587],[100.4943273,13.6494381],[100.4943684,13.6494129],[100.4943442,13.6493757]]]},"properties":{"osmId":"way/420054257","name":"Kafe Delight","height":9,"heightSource":"display-default","levels":null}},{"type":"Feature","id":420299241,"geometry":{"type":"Polygon","coordinates":[[[100.4939112,13.6496056],[100.4939088,13.6498533],[100.4942112,13.6498574],[100.4942134,13.6496071],[100.4941383,13.6496071],[100.4939112,13.6496056]]]},"properties":{"osmId":"way/420299241","name":"","height":9,"heightSource":"levels-estimate","levels":3}},{"type":"Feature","id":420299242,"geometry":{"type":"Polygon","coordinates":[[[100.4939112,13.6496056],[100.4941383,13.6496071],[100.4941373,13.6495378],[100.4939119,13.6495378],[100.4939112,13.6496056]]]},"properties":{"osmId":"way/420299242","name":"","height":9,"heightSource":"levels-estimate","levels":3}},{"type":"Feature","id":420299243,"geometry":{"type":"Polygon","coordinates":[[[100.4939133,13.6493937],[100.4939119,13.6495378],[100.4941373,13.6495378],[100.4941357,13.6494298],[100.4941059,13.6493959],[100.4939133,13.6493937]]]},"properties":{"osmId":"way/420299243","name":"","height":6,"heightSource":"levels-estimate","levels":2}},{"type":"Feature","id":420302821,"geometry":{"type":"Polygon","coordinates":[[[100.4941682,13.653664],[100.4950734,13.653675],[100.4952792,13.6536787],[100.4952331,13.6538617],[100.4951555,13.6538609],[100.4951112,13.6539011],[100.4951148,13.6538609],[100.4944045,13.6538616],[100.4942967,13.6538617],[100.4942946,13.653902],[100.4942382,13.6538616],[100.4941603,13.6538608],[100.4941682,13.653664]]]},"properties":{"osmId":"way/420302821","name":"Slope","height":9,"heightSource":"display-default","levels":null}},{"type":"Feature","id":420302823,"geometry":{"type":"Polygon","coordinates":[[[100.4949877,13.6532402],[100.4952493,13.6532391],[100.4952508,13.653574],[100.4949893,13.6535751],[100.4949888,13.6534776],[100.4949877,13.6532402]]]},"properties":{"osmId":"way/420302823","name":"","height":9,"heightSource":"display-default","levels":null}},{"type":"Feature","id":420303666,"geometry":{"type":"Polygon","coordinates":[[[100.4954716,13.6536348],[100.4955437,13.6537387],[100.4954616,13.6537924],[100.4953896,13.6536885],[100.4954716,13.6536348]]]},"properties":{"osmId":"way/420303666","name":"","height":9,"heightSource":"display-default","levels":null}},{"type":"Feature","id":420305547,"geometry":{"type":"Polygon","coordinates":[[[100.4959607,13.6523397],[100.4959872,13.6523867],[100.4956273,13.6526216],[100.4955994,13.6525772],[100.4955815,13.6525488],[100.495885,13.6522489],[100.4959607,13.6523397]]]},"properties":{"osmId":"way/420305547","name":"","height":9,"heightSource":"display-default","levels":null}},{"type":"Feature","id":420305548,"geometry":{"type":"Polygon","coordinates":[[[100.4962523,13.6521941],[100.4959877,13.6523259],[100.4960361,13.6524178],[100.4963007,13.652286],[100.4962523,13.6521941]]]},"properties":{"osmId":"way/420305548","name":"","height":9,"heightSource":"display-default","levels":null}},{"type":"Feature","id":420306004,"geometry":{"type":"Polygon","coordinates":[[[100.4954827,13.6526594],[100.4955793,13.6527985],[100.4955068,13.6528454],[100.4954789,13.6528036],[100.4954163,13.6527099],[100.4954357,13.6526958],[100.4954827,13.6526594]]]},"properties":{"osmId":"way/420306004","name":"","height":9,"heightSource":"display-default","levels":null}},{"type":"Feature","id":420306005,"geometry":{"type":"Polygon","coordinates":[[[100.4954789,13.6528036],[100.4953245,13.6528975],[100.4952719,13.6528146],[100.4954163,13.6527099],[100.4954789,13.6528036]]]},"properties":{"osmId":"way/420306005","name":"","height":9,"heightSource":"display-default","levels":null}},{"type":"Feature","id":420327738,"geometry":{"type":"Polygon","coordinates":[[[100.4947495,13.6519316],[100.4947558,13.6517138],[100.4952553,13.6517274],[100.4952487,13.6519581],[100.4951388,13.6519551],[100.4951403,13.6519016],[100.4950897,13.6519002],[100.495087,13.6519915],[100.4949081,13.6519866],[100.4949107,13.6518955],[100.4948639,13.6518942],[100.4948627,13.6519347],[100.4947495,13.6519316]]]},"properties":{"osmId":"way/420327738","name":"","height":9,"heightSource":"display-default","levels":null}},{"type":"Feature","id":420327849,"geometry":{"type":"Polygon","coordinates":[[[100.4949401,13.6529042],[100.4949428,13.6534776],[100.4949888,13.6534776],[100.4949877,13.6532402],[100.4952493,13.6532391],[100.4949401,13.6529042]]]},"properties":{"osmId":"way/420327849","name":"","height":9,"heightSource":"display-default","levels":null}},{"type":"Feature","id":420328169,"geometry":{"type":"Polygon","coordinates":[[[100.4941331,13.6533345],[100.4943611,13.6533339],[100.4943618,13.6536089],[100.4941338,13.6536095],[100.4941331,13.6533345]]]},"properties":{"osmId":"way/420328169","name":"","height":9,"heightSource":"display-default","levels":null}},{"type":"Feature","id":420533543,"geometry":{"type":"Polygon","coordinates":[[[100.4930906,13.6497916],[100.4930855,13.6499419],[100.4937034,13.6499616],[100.4937074,13.6498437],[100.4937742,13.6498458],[100.4937786,13.6497135],[100.4934713,13.6497037],[100.4934741,13.6496218],[100.4935468,13.6496241],[100.4935511,13.6494965],[100.4931221,13.6494829],[100.4931186,13.6495874],[100.4930191,13.6495843],[100.4930144,13.6497253],[100.4932283,13.6497321],[100.4932262,13.6497959],[100.4930906,13.6497916]]]},"properties":{"osmId":"way/420533543","name":"CB5","height":9,"heightSource":"display-default","levels":null,"directoryId":"S11"}},{"type":"Feature","id":420534007,"geometry":{"type":"Polygon","coordinates":[[[100.4930609,13.6517599],[100.4934466,13.6517636],[100.4934456,13.6518584],[100.4934934,13.6518588],[100.4934924,13.651951],[100.4935246,13.6519513],[100.4935954,13.6519518],[100.4935968,13.6520673],[100.4933848,13.6520658],[100.4933308,13.6520653],[100.4932072,13.6520641],[100.4932084,13.6519503],[100.4933194,13.6519513],[100.4933201,13.651884],[100.4930597,13.6518815],[100.4930609,13.6517599]]]},"properties":{"osmId":"way/420534007","name":"","height":9,"heightSource":"display-default","levels":null}},{"type":"Feature","id":420534143,"geometry":{"type":"Polygon","coordinates":[[[100.4935127,13.6518295],[100.4935146,13.651694],[100.4935411,13.6516943],[100.4935414,13.6516712],[100.4935762,13.6516716],[100.4935763,13.6516646],[100.4935224,13.6516639],[100.4935231,13.6516156],[100.4935784,13.6516163],[100.4935786,13.6515995],[100.4935793,13.6515514],[100.4935801,13.6514914],[100.4935537,13.6514911],[100.4935555,13.6513626],[100.4939093,13.6513673],[100.493909,13.6513852],[100.4939922,13.6513863],[100.4939921,13.6513957],[100.4940192,13.651396],[100.4940235,13.6511033],[100.4940441,13.6511036],[100.4943444,13.6511077],[100.4943411,13.6513304],[100.4941744,13.6513281],[100.494174,13.6513549],[100.494247,13.6513559],[100.4942448,13.6515055],[100.4941722,13.6515045],[100.4941718,13.6515328],[100.4940531,13.6515301],[100.4939944,13.6515303],[100.4939942,13.6515496],[100.4939493,13.651549],[100.4939486,13.6515974],[100.4938919,13.6515966],[100.4938917,13.6516082],[100.4937027,13.6516056],[100.4937017,13.6516741],[100.493731,13.6516745],[100.4937346,13.6516846],[100.493754,13.6517051],[100.4937522,13.6518327],[100.4935127,13.6518295]]]},"properties":{"osmId":"way/420534143","name":"อาคารเรียนรวม 2","height":18,"heightSource":"levels-estimate","levels":6,"directoryId":"N17"}},{"type":"Feature","id":420534334,"geometry":{"type":"Polygon","coordinates":[[[100.4930392,13.6493773],[100.4930402,13.6495162],[100.4927744,13.6495171],[100.492775,13.6495636],[100.49294,13.6495666],[100.4929385,13.6497419],[100.4926906,13.6497436],[100.492691,13.6498335],[100.4923476,13.6498334],[100.4923452,13.6496761],[100.4925565,13.6496736],[100.4925574,13.6496152],[100.4924109,13.6496152],[100.4924142,13.6494576],[100.4926539,13.6494638],[100.4926549,13.649371],[100.4930392,13.6493773]]]},"properties":{"osmId":"way/420534334","name":"CB4","height":9,"heightSource":"display-default","levels":null,"directoryId":"S12"}},{"type":"Feature","id":420534581,"geometry":{"type":"Polygon","coordinates":[[[100.4918354,13.6501397],[100.4918363,13.6502487],[100.4915347,13.6502434],[100.4915215,13.6502312],[100.4915238,13.6499976],[100.4915987,13.6499986],[100.4915959,13.6501367],[100.4918354,13.6501397]]]},"properties":{"osmId":"way/420534581","name":"","height":9,"heightSource":"display-default","levels":null}},{"type":"Feature","id":420534582,"geometry":{"type":"Polygon","coordinates":[[[100.4922889,13.6496764],[100.492288,13.6498247],[100.4920747,13.6498228],[100.4920757,13.6498898],[100.4922138,13.6498929],[100.4922112,13.6500387],[100.4920654,13.6500377],[100.4920657,13.6501488],[100.4918354,13.6501397],[100.4915959,13.6501367],[100.4915987,13.6499986],[100.491824,13.649998],[100.4918272,13.6499025],[100.4917514,13.6498989],[100.4917508,13.6498088],[100.4919001,13.6498078],[100.4919016,13.6496937],[100.4919208,13.6496931],[100.4919221,13.6496704],[100.4920757,13.6496739],[100.4920762,13.6495957],[100.4920966,13.6495751],[100.4922929,13.649577],[100.4923058,13.6495992],[100.4923046,13.6496766],[100.4922889,13.6496764]]]},"properties":{"osmId":"way/420534582","name":"CB3","height":9,"heightSource":"display-default","levels":null,"directoryId":"S13"}},{"type":"Feature","id":436983061,"geometry":{"type":"Polygon","coordinates":[[[100.4931086,13.651665],[100.4931115,13.6515079],[100.4931962,13.651509],[100.4931995,13.6513631],[100.493481,13.651367],[100.4934784,13.651548],[100.4935793,13.6515514],[100.4935786,13.6515995],[100.4935022,13.6515985],[100.4934794,13.651599],[100.4934779,13.6516848],[100.4932489,13.6516815],[100.4932474,13.6516411],[100.4932132,13.6516414],[100.493213,13.6516653],[100.4931086,13.651665]]]},"properties":{"osmId":"way/436983061","name":"อาคารเรียนรวม 1","height":15,"heightSource":"levels-estimate","levels":5,"directoryId":"N20"}},{"type":"Feature","id":436983063,"geometry":{"type":"Polygon","coordinates":[[[100.4942442,13.6528739],[100.4944108,13.6528592],[100.4944194,13.6527835],[100.4946358,13.6527814],[100.4946531,13.6526364],[100.494573,13.6526111],[100.4945752,13.6525796],[100.494573,13.6524577],[100.4947829,13.6524577],[100.4947764,13.6523567],[100.4944043,13.6523715],[100.4944043,13.652485],[100.4944865,13.6524913],[100.4944865,13.6525375],[100.4942593,13.6525375],[100.4942442,13.6528739]]]},"properties":{"osmId":"way/436983063","name":"ภาควิชาคณิตศาสตร์","height":12,"heightSource":"levels-estimate","levels":4,"directoryId":"N4"}},{"type":"Feature","id":436983064,"geometry":{"type":"Polygon","coordinates":[[[100.4945752,13.6525796],[100.4947851,13.6525817],[100.4948024,13.6526847],[100.4950209,13.652649],[100.4950187,13.6525502],[100.4951464,13.6525439],[100.4951745,13.6524682],[100.4953043,13.6524387],[100.4952762,13.6522979],[100.495049,13.652342],[100.4950382,13.652424],[100.4949538,13.6524366],[100.4949495,13.6524156],[100.4949322,13.6524009],[100.4949041,13.6523904],[100.4948781,13.652403],[100.4948673,13.6524093],[100.4948478,13.6524303],[100.4948392,13.652445],[100.494824,13.6524556],[100.4947829,13.6524577],[100.494573,13.6524577],[100.4945752,13.6525796]]]},"properties":{"osmId":"way/436983064","name":"ภาควิชาเคมี","height":9,"heightSource":"display-default","levels":null,"directoryId":"N3"}},{"type":"Feature","id":436983066,"geometry":{"type":"Polygon","coordinates":[[[100.4942336,13.6493293],[100.4941209,13.6491229],[100.4943044,13.6489883],[100.4944493,13.6491948],[100.4942336,13.6493293]]]},"properties":{"osmId":"way/436983066","name":"ศูนย์พัฒนาเด็กเล็ก มจธ.","height":9,"heightSource":"display-default","levels":null,"directoryId":"S7"}},{"type":"Feature","id":436983067,"geometry":{"type":"Polygon","coordinates":[[[100.4930486,13.6505699],[100.4930575,13.6500283],[100.4936119,13.6500368],[100.493603,13.6505784],[100.4930486,13.6505699]]]},"properties":{"osmId":"way/436983067","name":"ภาควิชาวิศวกรรมเคมี","height":9,"heightSource":"display-default","levels":null,"directoryId":"S15"}},{"type":"Feature","id":651713745,"geometry":{"type":"Polygon","coordinates":[[[100.4931458,13.6491402],[100.4931385,13.6489555],[100.4936026,13.6487105],[100.4939809,13.6488187],[100.4939754,13.6491686],[100.493339,13.6491468],[100.4931458,13.6491402]]]},"properties":{"osmId":"way/651713745","name":"คณะพลังงานสิ่งแวดล้อมและวัสดุ","height":9,"heightSource":"display-default","levels":null,"directoryId":"S9"}},{"type":"Feature","id":651714592,"geometry":{"type":"Polygon","coordinates":[[[100.4931808,13.6520836],[100.4930328,13.6519066],[100.4931988,13.6519121],[100.4931808,13.6520836]]]},"properties":{"osmId":"way/651714592","name":"Coffee park","height":9,"heightSource":"display-default","levels":null}},{"type":"Feature","id":663430214,"geometry":{"type":"Polygon","coordinates":[[[100.4953909,13.6504273],[100.4953288,13.6503568],[100.4952894,13.6503119],[100.4952945,13.650205],[100.495365,13.6501498],[100.4955489,13.6501583],[100.4955828,13.6502243],[100.4953909,13.6504273]]]},"properties":{"osmId":"way/663430214","name":"","height":9,"heightSource":"display-default","levels":null}},{"type":"Feature","id":1333533931,"geometry":{"type":"Polygon","coordinates":[[[100.4937408,13.6503371],[100.4937419,13.6502366],[100.4936618,13.6502357],[100.4936607,13.6503363],[100.4937408,13.6503371]]]},"properties":{"osmId":"way/1333533931","name":"7-Eleven","height":9,"heightSource":"display-default","levels":null}},{"type":"Feature","id":1333533934,"geometry":{"type":"Polygon","coordinates":[[[100.493559,13.6496928],[100.4935647,13.649452],[100.493767,13.6494565],[100.4937614,13.6496973],[100.493559,13.6496928]]]},"properties":{"osmId":"way/1333533934","name":"Green Society","height":9,"heightSource":"display-default","levels":null,"directoryId":"S10"}},{"type":"Feature","id":1333533935,"geometry":{"type":"Polygon","coordinates":[[[100.4941076,13.6516824],[100.4942806,13.6516864],[100.4942922,13.651691],[100.4942987,13.6516985],[100.4943046,13.6517087],[100.4943101,13.6517332],[100.4943254,13.6518094],[100.4943272,13.6518232],[100.4943267,13.6518385],[100.494323,13.6518504],[100.4943151,13.6518634],[100.4943018,13.6518754],[100.4942871,13.6518851],[100.4942656,13.6518912],[100.494242,13.6518925],[100.4941182,13.6519017],[100.4941066,13.6519037],[100.4940993,13.651908],[100.4940975,13.6519177],[100.4940969,13.6519279],[100.4940985,13.651935],[100.4941051,13.6519378],[100.4941145,13.6519384],[100.4941424,13.651937],[100.4941535,13.6519374],[100.4941605,13.6519397],[100.4941682,13.6519456],[100.4943489,13.6519523],[100.4943673,13.6519573],[100.4943837,13.6519655],[100.4944027,13.6519819],[100.4944201,13.6520009],[100.4944327,13.6520264],[100.4944844,13.6521352],[100.4944874,13.6521457],[100.4944863,13.6521571],[100.4944816,13.6521668],[100.494474,13.6521727],[100.4944636,13.6521761],[100.4944468,13.6521755],[100.4942572,13.6521671],[100.4939768,13.6521621],[100.4936797,13.6521564],[100.4936624,13.6521526],[100.4936518,13.6521472],[100.4936437,13.6521373],[100.4936398,13.6521213],[100.4936439,13.651926],[100.4936561,13.6519198],[100.4938406,13.6519249],[100.4938461,13.6516901],[100.4938475,13.651681],[100.493854,13.6516724],[100.4938666,13.651669],[100.4940916,13.6516693],[100.4941028,13.6516744],[100.4941076,13.6516824]]]},"properties":{"osmId":"way/1333533935","name":"LX","height":9,"heightSource":"display-default","levels":null,"directoryId":"N16"}},{"type":"Feature","id":1333533936,"geometry":{"type":"Polygon","coordinates":[[[100.4927406,13.6518413],[100.4926063,13.6519862],[100.4926901,13.6520569],[100.492762,13.6521238],[100.4928946,13.6520205],[100.4927406,13.6518413]]]},"properties":{"osmId":"way/1333533936","name":"","height":9,"heightSource":"display-default","levels":null}},{"type":"Feature","id":1333533937,"geometry":{"type":"Polygon","coordinates":[[[100.4927499,13.6518268],[100.4926271,13.6519515],[100.4924967,13.6518304],[100.4926195,13.6517056],[100.4927499,13.6518268]]]},"properties":{"osmId":"way/1333533937","name":"","height":9,"heightSource":"display-default","levels":null}},{"type":"Feature","id":1333533938,"geometry":{"type":"Polygon","coordinates":[[[100.4929455,13.6517119],[100.4928931,13.6517116],[100.4928941,13.6518521],[100.492929,13.6519859],[100.4929775,13.6519759],[100.4929475,13.651848],[100.4929455,13.6517119]]]},"properties":{"osmId":"way/1333533938","name":"","height":9,"heightSource":"display-default","levels":null}},{"type":"Feature","id":1334181344,"geometry":{"type":"Polygon","coordinates":[[[100.4955256,13.6543528],[100.4953288,13.6544208],[100.4953184,13.6544264],[100.4953132,13.6544354],[100.4953123,13.6544435],[100.4953144,13.6544527],[100.4953391,13.6545294],[100.4953437,13.6545354],[100.495348,13.6545402],[100.4953551,13.6545429],[100.4953628,13.6545417],[100.4955259,13.6544873],[100.4955597,13.6544761],[100.4955665,13.6544719],[100.4955698,13.6544662],[100.4955705,13.6544599],[100.4955683,13.6544539],[100.4955381,13.6543626],[100.495535,13.6543569],[100.4955319,13.6543536],[100.4955256,13.6543528]]]},"properties":{"osmId":"way/1334181344","name":"มัสยิดดาริสสลาม","height":9,"heightSource":"display-default","levels":null}},{"type":"Feature","id":1334181345,"geometry":{"type":"Polygon","coordinates":[[[100.4953628,13.6545417],[100.4953819,13.6545959],[100.4954703,13.6545683],[100.4954675,13.6545592],[100.4955408,13.6545339],[100.4955259,13.6544873],[100.4953628,13.6545417]]]},"properties":{"osmId":"way/1334181345","name":"","height":6,"heightSource":"levels-estimate","levels":2}},{"type":"Feature","id":9183623,"geometry":{"type":"Polygon","coordinates":[[[100.4953749,13.6499832],[100.4953993,13.6498051],[100.4950372,13.649986],[100.4949458,13.6499893],[100.4949976,13.6500292],[100.4950297,13.6501061],[100.4950539,13.6500905],[100.4951709,13.65017],[100.4952296,13.6502169],[100.4952541,13.6499835],[100.4953749,13.6499832]]]},"properties":{"osmId":"relation/9183623","name":"สถาบันการเรียนรู้","height":42,"heightSource":"levels-estimate","levels":14,"directoryId":"S3"}},{"type":"Feature","id":9183624,"geometry":{"type":"Polygon","coordinates":[[[100.4953749,13.6499832],[100.4954728,13.6499493],[100.4953993,13.6498051],[100.4953749,13.6499832]]]},"properties":{"osmId":"relation/9183624","name":"","height":9,"heightSource":"display-default","levels":null}}]}
